AKEBONO (EXOS-D)        
1 19822U 89016A   15080.15562190  .00039481  83798-6  88576-3 0  9992
2 19822  75.0439 120.1745 2129091 279.9212 182.1727 11.21136203815246
HST                     
1 20580U 90037B   15080.25211372  .00002480  00000-0  14999-3 0  9990
2 20580  28.4711  13.8382 0003043  15.9166 117.9887 15.07017247166539
POLAR                   
1 23802U 96013A   15080.26367797  .00000014  00000-0  00000+0 0  9999
2 23802  78.8053 290.9784 7359584 358.0446   0.4142  1.29843004 91538
SWAS                    
1 25560U 98071A   15080.48939444  .00001895  00000-0  19515-3 0  9999
2 25560  69.9007 157.7062 0009901 321.1055  38.9386 14.92020059883351
ORSTED                  
1 25635U 99008B   15080.81619682  .00000442  00000-0  11429-3 0  9992
2 25635  96.4775 167.0228 0138956 337.7436 143.8349 14.47594641847828
CXO                     
1 25867U 99040B   15083.22614038  .00000278  00000-0  00000+0 0  9999
2 25867  76.9629 310.2353 7681472 270.2336   0.0849  0.37803355 12967
XMM-NEWTON              
1 25989U 99066A   15078.58934971  .00000139  00000-0  00000+0 0  9992
2 25989  65.9733  45.4212 7927947  93.3460   0.3498  0.50319102 16772
TERRA                   
1 25994U 99068A   15081.14497249  .00000586  00000-0  14010-3 0  9994
2 25994  98.2185 156.8904 0001407 100.7402 259.3953 14.57100771811541
CLUSTER II-FM6 (SALSA)  
1 26410U 00041A   15079.33222833  .00000540  00000-0  00000+0 0  9994
2 26410 132.7910 323.1105 5988682 136.2536 359.9714  0.44473142 13871
CLUSTER II-FM7 (SAMBA)  
1 26411U 00041B   15079.60966612  .00000535  00000-0  00000+0 0  9999
2 26411 132.8101 323.3925 5874415 135.7534   0.1344  0.44269786 13957
CLUSTER II-FM5 (RUMBA)  
1 26463U 00045A   15079.64964840  .00000569  00000-0  00000+0 0  9992
2 26463 135.4862 322.2012 6076040 136.5713   0.1402  0.44216569 14451
CLUSTER II-FM8 (TANGO)  
1 26464U 00045B   15081.89981457  .00000334  00000-0  00000+0 0  9996
2 26464 131.9476 325.2558 6449945 139.8098   0.3880  0.44227194 49807
ODIN                    
1 26702U 01007A   15080.79506136  .00003584  00000-0  25996-3 0  9990
2 26702  97.6433  95.1361 0010908 325.2744  34.7769 15.04520517768457
TIMED                   
1 26998U 01055B   15080.52428989  .00001004  00000-0  11580-3 0  9999
2 26998  74.0718 143.4856 0001455 315.7481  44.3582 14.87128735719748
RHESSI                  
1 27370U 02004A   15080.79477071  .00008401  00000-0  38569-3 0  9998
2 27370  38.0373 332.5655 0014231 269.6307  90.2830 15.20029240721263
INTEGRAL                
1 27540U 02048A   15083.03557698  .00000589  00000-0  00000+0 0  9993
2 27540  53.7829 222.2468 8506350 265.1007   0.8131  0.33284186 11334
CORIOLIS                
1 27640U 03001A   15080.54021035  .00000099  00000-0  68642-4 0  9995
2 27640  98.7542  90.4615 0014930 135.6609 336.5058 14.18813862631853
SORCE                   
1 27651U 03004A   15080.41136173  .00001885  00000-0  21876-3 0  9997
2 27651  39.9947 201.3779 0024408 250.0234 109.7925 14.87342889658777
MOST                    
1 27843U 03031D   15080.85277923  .00000050  00000-0  43700-4 0  9991
2 27843  98.7176  89.5972 0009412 206.5083 153.5613 14.20458792607777
SCISAT 1                
1 27858U 03036A   15081.15412126  .00000701  00000-0  10513-3 0  9990
2 27858  73.9357   1.8800 0009249 288.2151  71.8015 14.76690355625005
SWIFT                   
1 28485U 04047A   15080.37224993  .00003656  00000-0  24436-3 0  9997
2 28485  20.5571  91.1135 0011851 350.2445   9.7757 15.01149289564862
SUZAKU (ASTRO-EII)      
1 28773U 05025A   15079.50771456  .00004427  00000-0  24740-3 0  9993
2 28773  31.3831 200.2049 0005252  59.7592 300.3573 15.11921270532994
FORMOSAT-3 FM6          
1 29047U 06011A   15080.41787962  .00000389  00000-0  17028-3 0  9999
2 29047  71.9794  57.5160 0049232 125.5053 235.0690 14.28273618467853
FORMOSAT-3 FM1          
1 29048U 06011B   15081.16766728  .00000431  00000-0  18748-3 0  9998
2 29048  71.9697 329.0314 0042661  76.4150  80.4186 14.28250449470443
FORMOSAT-3 FM5          
1 29049U 06011C   15080.52921624  .00000410  00000-0  17967-3 0  9995
2 29049  72.0195 131.1585 0033356 123.8039 349.0958 14.28256923466129
FORMOSAT-3 FM3          
1 29050U 06011D   15080.47012569  .00001007  00000-0  22729-3 0  9995
2 29050  72.0152 111.5496 0051786 205.4877 154.3722 14.57643734477222
FORMOSAT-3 FM4          
1 29051U 06011E   15080.81760835  .00000463  00000-0  19702-3 0  9992
2 29051  72.0074  36.0464 0068741 353.2893   6.7315 14.28258969468757
FORMOSAT-3 FM2          
1 29052U 06011F   15080.18776625  .00000421  00000-0  18316-3 0  9991
2 29052  72.0331 105.9008 0038371  86.8748 336.8599 14.28358425466979
CLOUDSAT                
1 29107U 06016A   15080.61751822  .00000794  00000-0  18609-3 0  9995
2 29107  98.2051  25.5892 0001848  73.8154 286.3209 14.57167340473233
CALIPSO                 
1 29108U 06016B   15080.89125641  .00001315  00000-0  30185-3 0  9993
2 29108  98.2053  25.4193 0001611  71.9109 288.2223 14.57117885473209
HINODE (SOLAR-B)        
1 29479U 06041A   15080.60464070  .00000656  00000-0  13321-3 0  9993
2 29479  98.1454  81.2542 0015856 273.1204  86.8184 14.64304031453575
SJ-6C                   
1 29505U 06046A   15081.21652025  .00001815  00000-0  17746-3 0  9998
2 29505  97.7848  77.2890 0001688 318.1757  41.9342 14.93596350457738
SJ-6D                   
1 29506U 06046B   15081.15527162  .00001419  00000-0  14337-3 0  9998
2 29506  97.8002  76.0709 0002800  38.2346 321.9061 14.92616059457499
AGILE                   
1 31135U 07013A   15079.17239963  .00007523  00000-0  25815-3 0  9997
2 31135   2.4703 352.7050 0015633 242.7506 117.0955 15.23876844438109
AIM                     
1 31304U 07015A   15080.41537291  .00005702  00000-0  38649-3 0  9997
2 31304  97.9073 216.2916 0006069  46.4291 313.7438 15.06860236431343
FGRST (GLAST)           
1 33053U 08029A   15080.46873766  .00002064  00000-0  10726-3 0  9995
2 33053  25.5824 171.5712 0012940 176.3805 183.6825 15.09605694373395
IBEX                    
1 33401U 08051A   15082.27289372 -.00001956  00000-0  00000+0 0  9992
2 33401  15.2398 129.9412 5045010  10.7551 354.7806  0.11185799  2740
WISE                    
1 36119U 09071A   15080.53448382  .00004819  00000-0  20261-3 0  9994
2 36119  97.5065  95.6401 0002094   4.7013 355.4243 15.23893013291372
SDO                     
1 36395U 10005A   15076.39723595 -.00000088  00000-0  00000+0 0  9990
2 36395  28.0695 155.4176 0002309 187.9344 231.9761  1.00275446 18835
CRYOSAT 2               
1 36508U 10013A   15080.19658787  .00000216  00000-0  52686-4 0  9992
2 36508  92.0317   4.2062 0005943 239.1513 120.9110 14.52172211262308
PICARD                  
1 36598U 10028A   15081.12495831  .00000406  00000-0  11564-3 0  9990
2 36598  98.3042 266.4638 0002114   2.4433 357.6764 14.50255700252172
SPEKTR-R                
1 37755U 11037A   15082.94250774 -.00000678  00000-0  00000+0 0  9994
2 37755  57.6868 107.3086 5975044 197.1213   1.9537  0.11314246  1583
GCOM-W1 (SHIZUKU)       
1 38337U 12025A   15080.06307631  .00001136  00000-0  26232-3 0  9993
2 38337  98.2004  21.2656 0001261 106.7619 253.3715 14.57084483151086
NUSTAR                  
1 38358U 12031A   15080.11452878  .00003004  00000-0  25631-3 0  9991
2 38358   6.0263 128.7748 0012193  24.1250 335.9449 14.86129383150304
RBSP A                  
1 38752U 12046A   15079.57467114 -.00000068  00000-0  56219-4 0  9997
2 38752   9.7830 210.6049 6823015 118.3203 325.0576  2.67377473 24920
RBSP B                  
1 38753U 12046B   15079.45093885 -.00000054  00000-0  14981-3 0  9999
2 38753   9.7524 214.7389 6829814 110.5069 331.0946  2.65866485 24809
NEOSSAT                 
1 39089U 13009D   15080.61449882  .00000190  00000-0  83631-4 0  9993
2 39089  98.6090 278.7697 0010747 196.0973 163.9872 14.34209330108052
BRITE-AUSTRIA           
1 39091U 13009F   15081.12311922  .00000184  00000-0  80603-4 0  9995
2 39091  98.6090 280.0013 0010008 206.7447 153.3223 14.34847911108177
UNIBRITE                
1 39092U 13009G   15080.77117617  .00000209  00000-0  89481-4 0  9992
2 39092  98.6089 279.4734 0008990 199.6913 160.3926 14.34719780108117
IRIS                    
1 39197U 13033A   15080.53057792  .00000993  00000-0  14535-3 0  9993
2 39197  97.9059 265.1661 0027086 304.3034  55.5613 14.77607164 93175
HISAKI (SPRINT-A)       
1 39253U 13049A   15080.49214472  .00000193  00000-0  17045-3 0  9999
2 39253  29.7194 204.0396 0137023 226.3354 132.5788 13.55112959 75109
CASSIOPE                
1 39265U 13055A   15080.23642080  .00010896  00000-0  34055-3 0  9992
2 39265  80.9744 136.2681 0736601  86.6264 339.5758 14.11222439 75439
DANDE                   
1 39267U 13055C   15080.47311049  .00008542  00000-0  27529-3 0  9991
2 39267  80.9892 137.4423 0748909  89.7828 278.9063 14.07928442 75376
STSAT-3                 
1 39422U 13066G   15081.15418342  .00002225  00000-0  24513-3 0  9998
2 39422  97.7505 154.1339 0024792  61.7041 298.6695 14.88312682 72191
BRITE-PL                
1 39431U 13066R   15081.10266721  .00000599  00000-0  13811-3 0  9996
2 39431  97.7103 122.2715 0205029 128.3543 233.6274 14.46381142 70179
SWARM B                 
1 39451U 13067A   15080.69098426  .00002133  00000-0  10000-3 0  9990
2 39451  87.7548 132.4528 0001782  79.5281 280.6208 15.19149588 73500
SWARM A                 
1 39452U 13067B   15080.55686225  .00008495  00000-0  23267-3 0  9992
2 39452  87.3476 107.8384 0002319  71.7319 288.4179 15.37154673 74141
SWARM C                 
1 39453U 13067C   15080.55676148  .00007137  00000-0  19533-3 0  9999
2 39453  87.3490 109.2458 0002293  75.7197 284.4305 15.37152001 74101
BRITE-TORONTO           
1 40020U 14033L   15081.12694609  .00001086  00000-0  19622-3 0  9997
2 40020  97.9461 332.2177 0089413  45.3793 315.4661 14.65851952 40225
OCO 2                   
1 40059U 14035A   15080.81656981  .00000720  00000-0  17000-3 0  9999
2 40059  98.2223  23.2312 0001306  90.3666 269.7616 14.57086750 38224
BRITE-PL 2              
1 40119U 14049B   15081.16658270  .00001574  00000-0  19893-3 0  9993
2 40119  97.9946 157.8875 0016843 232.2546 127.7198 14.83236265 31861
RESURS P2               
1 40360U 14087A   15081.11723647  .00005738  00000-0  17745-3 0  9999
2 40360  97.2862 176.6978 0006639 144.0315 335.1487 15.33868488 13093
